CCSDS_OMM_VERS = 2.0
CREATION_DATE  = 
ORIGINATOR     = 

OBJECT_NAME    = PROGRESS-MS 32
OBJECT_ID      = 2025-204A
CENTER_NAME    = EARTH
REF_FRAME      = TEME
TIME_SYSTEM    = UTC
MEAN_ELEMENT_THEORY = SGP/SGP4

EPOCH          = 2025-11-19T04:33:42.650208
MEAN_MOTION    = 15.49812972
ECCENTRICITY   = .00041545
INCLINATION    = 51.6333
RA_OF_ASC_NODE = 259.0348
ARG_OF_PERICENTER = 86.2580
MEAN_ANOMALY   = 273.8884

EPHEMERIS_TYPE = 0
CLASSIFICATION_TYPE = U
NORAD_CAT_ID   = 65586
ELEMENT_SET_NO = 999
REV_AT_EPOCH   = 27
BSTAR          = .25811767E-3
MEAN_MOTION_DOT = .14207E-3
MEAN_MOTION_DDOT = 0

CCSDS_OMM_VERS = 2.0
CREATION_DATE  = 
ORIGINATOR     = 

OBJECT_NAME    = CYGNUS NG-23
OBJECT_ID      = 2025-208A
CENTER_NAME    = EARTH
REF_FRAME      = TEME
TIME_SYSTEM    = UTC
MEAN_ELEMENT_THEORY = SGP/SGP4

EPOCH          = 2025-11-19T04:33:42.650208
MEAN_MOTION    = 15.49812972
ECCENTRICITY   = .00041545
INCLINATION    = 51.6333
RA_OF_ASC_NODE = 259.0348
ARG_OF_PERICENTER = 86.2580
MEAN_ANOMALY   = 273.8884

EPHEMERIS_TYPE = 0
CLASSIFICATION_TYPE = U
NORAD_CAT_ID   = 65616
ELEMENT_SET_NO = 999
REV_AT_EPOCH   = 22
BSTAR          = .25811767E-3
MEAN_MOTION_DOT = .14207E-3
MEAN_MOTION_DDOT = 0

CCSDS_OMM_VERS = 2.0
CREATION_DATE  = 
ORIGINATOR     = 

OBJECT_NAME    = DRAGONFLY
OBJECT_ID      = 1998-067XH
CENTER_NAME    = EARTH
REF_FRAME      = TEME
TIME_SYSTEM    = UTC
MEAN_ELEMENT_THEORY = SGP/SGP4

EPOCH          = 2025-11-19T02:09:35.405568
MEAN_MOTION    = 15.64399483
ECCENTRICITY   = .00057138
INCLINATION    = 51.6292
RA_OF_ASC_NODE = 256.1171
ARG_OF_PERICENTER = 149.8908
MEAN_ANOMALY   = 210.2417

EPHEMERIS_TYPE = 0
CLASSIFICATION_TYPE = U
NORAD_CAT_ID   = 65729
ELEMENT_SET_NO = 999
REV_AT_EPOCH   = 945
BSTAR          = .11518638E-2
MEAN_MOTION_DOT = .113789E-2
MEAN_MOTION_DDOT = 0

CCSDS_OMM_VERS = 2.0
CREATION_DATE  = 
ORIGINATOR     = 

OBJECT_NAME    = 1998-067XJ
OBJECT_ID      = 1998-067XJ
CENTER_NAME    = EARTH
REF_FRAME      = TEME
TIME_SYSTEM    = UTC
MEAN_ELEMENT_THEORY = SGP/SGP4

EPOCH          = 2025-11-18T20:35:54.876192
MEAN_MOTION    = 15.82966684
ECCENTRICITY   = .00118894
INCLINATION    = 51.6228
RA_OF_ASC_NODE = 254.5433
ARG_OF_PERICENTER = 144.3757
MEAN_ANOMALY   = 215.8041

EPHEMERIS_TYPE = 0
CLASSIFICATION_TYPE = U
NORAD_CAT_ID   = 65730
ELEMENT_SET_NO = 999
REV_AT_EPOCH   = 945
BSTAR          = .23955511E-2
MEAN_MOTION_DOT = .558185E-2
MEAN_MOTION_DDOT = 0

CCSDS_OMM_VERS = 2.0
CREATION_DATE  = 
ORIGINATOR     = 

OBJECT_NAME    = 1998-067XK
OBJECT_ID      = 1998-067XK
CENTER_NAME    = EARTH
REF_FRAME      = TEME
TIME_SYSTEM    = UTC
MEAN_ELEMENT_THEORY = SGP/SGP4

EPOCH          = 2025-11-19T01:55:16.145472
MEAN_MOTION    = 15.60984312
ECCENTRICITY   = .00059303
INCLINATION    = 51.6316
RA_OF_ASC_NODE = 256.8060
ARG_OF_PERICENTER = 124.7427
MEAN_ANOMALY   = 235.4126

EPHEMERIS_TYPE = 0
CLASSIFICATION_TYPE = U
NORAD_CAT_ID   = 65731
ELEMENT_SET_NO = 999
REV_AT_EPOCH   = 944
BSTAR          = .87726764E-3
MEAN_MOTION_DOT = .75326E-3
MEAN_MOTION_DDOT = 0

CCSDS_OMM_VERS = 2.0
CREATION_DATE  = 
ORIGINATOR     = 

OBJECT_NAME    = RSP-03
OBJECT_ID      = 1998-067XL
CENTER_NAME    = EARTH
REF_FRAME      = TEME
TIME_SYSTEM    = UTC
MEAN_ELEMENT_THEORY = SGP/SGP4

EPOCH          = 2025-11-19T02:49:38.269056
MEAN_MOTION    = 15.62620166
ECCENTRICITY   = .00066912
INCLINATION    = 51.6296
RA_OF_ASC_NODE = 256.3049
ARG_OF_PERICENTER = 126.9731
MEAN_ANOMALY   = 233.1877

EPHEMERIS_TYPE = 0
CLASSIFICATION_TYPE = U
NORAD_CAT_ID   = 65732
ELEMENT_SET_NO = 999
REV_AT_EPOCH   = 946
BSTAR          = .10349081E-2
MEAN_MOTION_DOT = .95057E-3
MEAN_MOTION_DDOT = 0

CCSDS_OMM_VERS = 2.0
CREATION_DATE  = 
ORIGINATOR     = 

OBJECT_NAME    = GHS-01
OBJECT_ID      = 1998-067XM
CENTER_NAME    = EARTH
REF_FRAME      = TEME
TIME_SYSTEM    = UTC
MEAN_ELEMENT_THEORY = SGP/SGP4

EPOCH          = 2025-11-19T01:42:10.857600
MEAN_MOTION    = 15.65693377
ECCENTRICITY   = .00061294
INCLINATION    = 51.6303
RA_OF_ASC_NODE = 255.9938
ARG_OF_PERICENTER = 147.4408
MEAN_ANOMALY   = 212.6966

EPHEMERIS_TYPE = 0
CLASSIFICATION_TYPE = U
NORAD_CAT_ID   = 65733
ELEMENT_SET_NO = 999
REV_AT_EPOCH   = 946
BSTAR          = .1256122E-2
MEAN_MOTION_DOT = .131013E-2
MEAN_MOTION_DDOT = 0

CCSDS_OMM_VERS = 2.0
CREATION_DATE  = 
ORIGINATOR     = 

OBJECT_NAME    = YOTSUBA-KULOVER
OBJECT_ID      = 1998-067XN
CENTER_NAME    = EARTH
REF_FRAME      = TEME
TIME_SYSTEM    = UTC
MEAN_ELEMENT_THEORY = SGP/SGP4

EPOCH          = 2025-11-19T02:26:19.145472
MEAN_MOTION    = 15.55899780
ECCENTRICITY   = .00024506
INCLINATION    = 51.6314
RA_OF_ASC_NODE = 258.4453
ARG_OF_PERICENTER = 94.8801
MEAN_ANOMALY   = 265.2470

EPHEMERIS_TYPE = 0
CLASSIFICATION_TYPE = U
NORAD_CAT_ID   = 65941
ELEMENT_SET_NO = 999
REV_AT_EPOCH   = 617
BSTAR          = .84011822E-3
MEAN_MOTION_DOT = .59309E-3
MEAN_MOTION_DDOT = 0

CCSDS_OMM_VERS = 2.0
CREATION_DATE  = 
ORIGINATOR     = 

OBJECT_NAME    = BOTAN
OBJECT_ID      = 1998-067XP
CENTER_NAME    = EARTH
REF_FRAME      = TEME
TIME_SYSTEM    = UTC
MEAN_ELEMENT_THEORY = SGP/SGP4

EPOCH          = 2025-11-19T00:24:31.120704
MEAN_MOTION    = 15.57684723
ECCENTRICITY   = .00047323
INCLINATION    = 51.6310
RA_OF_ASC_NODE = 258.6311
ARG_OF_PERICENTER = 102.1382
MEAN_ANOMALY   = 258.0140

EPHEMERIS_TYPE = 0
CLASSIFICATION_TYPE = U
NORAD_CAT_ID   = 65942
ELEMENT_SET_NO = 999
REV_AT_EPOCH   = 616
BSTAR          = .10517619E-2
MEAN_MOTION_DOT = .79738E-3
MEAN_MOTION_DDOT = 0

CCSDS_OMM_VERS = 2.0
CREATION_DATE  = 
ORIGINATOR     = 

OBJECT_NAME    = E-KAGAKU-1
OBJECT_ID      = 1998-067XQ
CENTER_NAME    = EARTH
REF_FRAME      = TEME
TIME_SYSTEM    = UTC
MEAN_ELEMENT_THEORY = SGP/SGP4

EPOCH          = 2025-11-19T02:25:46.666848
MEAN_MOTION    = 15.55879979
ECCENTRICITY   = .00040575
INCLINATION    = 51.6322
RA_OF_ASC_NODE = 258.4445
ARG_OF_PERICENTER = 83.1907
MEAN_ANOMALY   = 276.9545

EPHEMERIS_TYPE = 0
CLASSIFICATION_TYPE = U
NORAD_CAT_ID   = 65943
ELEMENT_SET_NO = 999
REV_AT_EPOCH   = 617
BSTAR          = .81780823E-3
MEAN_MOTION_DOT = .57677E-3
MEAN_MOTION_DDOT = 0

CCSDS_OMM_VERS = 2.0
CREATION_DATE  = 
ORIGINATOR     = 

OBJECT_NAME    = HRC MONOBLOCK CAMERA
OBJECT_ID      = 1998-067XR
CENTER_NAME    = EARTH
REF_FRAME      = TEME
TIME_SYSTEM    = UTC
MEAN_ELEMENT_THEORY = SGP/SGP4

EPOCH          = 2025-11-19T02:24:44.635968
MEAN_MOTION    = 15.52132945
ECCENTRICITY   = .00047402
INCLINATION    = 51.6321
RA_OF_ASC_NODE = 259.1849
ARG_OF_PERICENTER = 89.3734
MEAN_ANOMALY   = 270.7799

EPHEMERIS_TYPE = 0
CLASSIFICATION_TYPE = U
NORAD_CAT_ID   = 66052
ELEMENT_SET_NO = 999
REV_AT_EPOCH   = 516
BSTAR          = .56271925E-3
MEAN_MOTION_DOT = .34346E-3
MEAN_MOTION_DDOT = 0

CCSDS_OMM_VERS = 2.0
CREATION_DATE  = 
ORIGINATOR     = 

OBJECT_NAME    = HTV-X1
OBJECT_ID      = 2025-241A
CENTER_NAME    = EARTH
REF_FRAME      = TEME
TIME_SYSTEM    = UTC
MEAN_ELEMENT_THEORY = SGP/SGP4

EPOCH          = 2025-11-19T04:33:42.650208
MEAN_MOTION    = 15.49812972
ECCENTRICITY   = .00041545
INCLINATION    = 51.6333
RA_OF_ASC_NODE = 259.0348
ARG_OF_PERICENTER = 86.2580
MEAN_ANOMALY   = 273.8884

EPHEMERIS_TYPE = 0
CLASSIFICATION_TYPE = U
NORAD_CAT_ID   = 66174
ELEMENT_SET_NO = 999
REV_AT_EPOCH   = 145
BSTAR          = .25811767E-3
MEAN_MOTION_DOT = .14207E-3
MEAN_MOTION_DDOT = 0

