PROGRESS-MS 32          
1 65586U 25204A   25323.19007697  .00014207  00000+0  25812-3 0  9991
2 65586  51.6333 259.0348 0004154  86.2580 273.8884 15.49812972   274
CYGNUS NG-23            
1 65616U 25208A   25323.19007697  .00014207  00000+0  25812-3 0  9999
2 65616  51.6333 259.0348 0004154  86.2580 273.8884 15.49812972   223
DRAGONFLY               
1 65729U 98067XH  25323.08999312  .00113789  00000+0  11519-2 0  9992
2 65729  51.6292 256.1171 0005713 149.8908 210.2417 15.64399483  9451
1998-067XJ              
1 65730U 98067XJ  25322.85827403  .00558185  00000+0  23956-2 0  9990
2 65730  51.6228 254.5433 0011889 144.3757 215.8041 15.82966684  9455
1998-067XK              
1 65731U 98067XK  25323.08004798  .00075326  00000+0  87727-3 0  9999
2 65731  51.6316 256.8060 0005930 124.7427 235.4126 15.60984312  9446
RSP-03                  
1 65732U 98067XL  25323.11780404  .00095057  00000+0  10349-2 0  9997
2 65732  51.6296 256.3049 0006691 126.9731 233.1877 15.62620166  9469
GHS-01                  
1 65733U 98067XM  25323.07095900  .00131013  00000+0  12561-2 0  9994
2 65733  51.6303 255.9938 0006129 147.4408 212.6966 15.65693377  9464
YOTSUBA-KULOVER         
1 65941U 98067XN  25323.10161048  .00059309  00000+0  84012-3 0  9994
2 65941  51.6314 258.4453 0002450  94.8801 265.2470 15.55899780  6176
BOTAN                   
1 65942U 98067XP  25323.01702686  .00079738  00000+0  10518-2 0  9991
2 65942  51.6310 258.6311 0004732 102.1382 258.0140 15.57684723  6164
E-KAGAKU-1              
1 65943U 98067XQ  25323.10123457  .00057677  00000+0  81781-3 0  9994
2 65943  51.6322 258.4445 0004057  83.1907 276.9545 15.55879979  6171
HRC MONOBLOCK CAMERA    
1 66052U 98067XR  25323.10051662  .00034346  00000+0  56272-3 0  9999
2 66052  51.6321 259.1849 0004740  89.3734 270.7799 15.52132945  5166
HTV-X1                  
1 66174U 25241A   25323.19007697  .00014207  00000+0  25812-3 0  9996
2 66174  51.6333 259.0348 0004154  86.2580 273.8884 15.49812972  1459
